SL-14 R/B               
1 16792U 86046B   26023.67888013  .00000923  00000+0  10361-3 0  9990
2 16792  82.4835 122.7096 0023573  20.4463 339.7691 14.85540999119725
SL-14 R/B               
1 16882U 86055B   26024.16825750  .00001182  00000+0  13339-3 0  9990
2 16882  82.5217 168.5040 0020258 117.5490  55.2982 14.85587948112756
AJISAI (EGS)            
1 16908U 86061A   26024.15198243 -.00000094  00000+0  23019-4 0  9994
2 16908  50.0062 230.3026 0011264 172.6069 287.4089 12.44515203462456
COSMOS 1812             
1 17295U 87003A   26024.07903672  .00220051  00000+0  82159-3 0  9997
2 17295  82.4810 245.8176 0001422  42.1643 317.9737 15.87397397137345
SL-14 R/B               
1 17567U 87024B   26023.39200402  .00001000  00000+0  11116-3 0  9993
2 17567  82.5303 135.3291 0019446  53.7946 306.5065 14.86081322 81404
COSMOS 1833             
1 17589U 87027A   26024.12128336  .00000250  00000+0  15934-3 0  9995
2 17589  70.9194  59.6901 0024490 273.6560  86.1761 14.13050296  4026
SL-16 R/B               
1 17590U 87027B   26024.15341308  .00000042  00000+0  44705-4 0  9994
2 17590  71.0034  10.3411 0006020 212.8043 147.2707 14.17159788  9038
SL-14 R/B               
1 17912U 87038B   26023.36362116  .00001051  00000+0  11929-3 0  9998
2 17912  82.5034 339.4935 0018226 318.3573  41.6254 14.85314772 72507
COSMOS 1844             
1 17973U 87041A   26023.70846075 -.00000157  00000+0 -56433-4 0  9996
2 17973  70.8992 129.0548 0028364  90.0593 270.3779 14.14535254997220
SL-14 R/B               
1 18153U 87055B   26024.08926536  .00000949  00000+0  10655-3 0  9997
2 18153  82.4977  31.0664 0021232 156.9945 203.2227 14.85571890 63315
COSMOS 1867             
1 18187U 87060A   26024.14892840  .00000039  00000+0  52427-4 0  9991
2 18187  65.0103  71.4401 0013949 275.1840  84.7652 14.31495038 13567
SL-14 R/B               
1 18749U 88001B   26024.08158980  .00000853  00000+0  95829-4 0  9991
2 18749  82.5105 237.3214 0018855  30.1246 330.1050 14.85473923 35407
