CCSDS_OMM_VERS = 2.0
CREATION_DATE  = 
ORIGINATOR     = 

OBJECT_NAME    = SL-14 R/B
OBJECT_ID      = 1986-046B
CENTER_NAME    = EARTH
REF_FRAME      = TEME
TIME_SYSTEM    = UTC
MEAN_ELEMENT_THEORY = SGP/SGP4

EPOCH          = 2026-01-23T16:17:35.243232
MEAN_MOTION    = 14.85540999
ECCENTRICITY   = .00235733
INCLINATION    = 82.4835
RA_OF_ASC_NODE = 122.7096
ARG_OF_PERICENTER = 20.4463
MEAN_ANOMALY   = 339.7691

EPHEMERIS_TYPE = 0
CLASSIFICATION_TYPE = U
NORAD_CAT_ID   = 16792
ELEMENT_SET_NO = 999
REV_AT_EPOCH   = 11972
BSTAR          = .10361075E-3
MEAN_MOTION_DOT = .923E-5
MEAN_MOTION_DDOT = 0

CCSDS_OMM_VERS = 2.0
CREATION_DATE  = 
ORIGINATOR     = 

OBJECT_NAME    = SL-14 R/B
OBJECT_ID      = 1986-055B
CENTER_NAME    = EARTH
REF_FRAME      = TEME
TIME_SYSTEM    = UTC
MEAN_ELEMENT_THEORY = SGP/SGP4

EPOCH          = 2026-01-24T04:02:17.448000
MEAN_MOTION    = 14.85587948
ECCENTRICITY   = .0020258
INCLINATION    = 82.5217
RA_OF_ASC_NODE = 168.5040
ARG_OF_PERICENTER = 117.5490
MEAN_ANOMALY   = 55.2982

EPHEMERIS_TYPE = 0
CLASSIFICATION_TYPE = U
NORAD_CAT_ID   = 16882
ELEMENT_SET_NO = 999
REV_AT_EPOCH   = 11275
BSTAR          = .13339E-3
MEAN_MOTION_DOT = .1182E-4
MEAN_MOTION_DDOT = 0

CCSDS_OMM_VERS = 2.0
CREATION_DATE  = 
ORIGINATOR     = 

OBJECT_NAME    = AJISAI (EGS)
OBJECT_ID      = 1986-061A
CENTER_NAME    = EARTH
REF_FRAME      = TEME
TIME_SYSTEM    = UTC
MEAN_ELEMENT_THEORY = SGP/SGP4

EPOCH          = 2026-01-24T03:38:51.281952
MEAN_MOTION    = 12.44515203
ECCENTRICITY   = .0011264
INCLINATION    = 50.0062
RA_OF_ASC_NODE = 230.3026
ARG_OF_PERICENTER = 172.6069
MEAN_ANOMALY   = 287.4089

EPHEMERIS_TYPE = 0
CLASSIFICATION_TYPE = U
NORAD_CAT_ID   = 16908
ELEMENT_SET_NO = 999
REV_AT_EPOCH   = 46245
BSTAR          = .23019E-4
MEAN_MOTION_DOT = -.94E-6
MEAN_MOTION_DDOT = 0

CCSDS_OMM_VERS = 2.0
CREATION_DATE  = 
ORIGINATOR     = 

OBJECT_NAME    = COSMOS 1812
OBJECT_ID      = 1987-003A
CENTER_NAME    = EARTH
REF_FRAME      = TEME
TIME_SYSTEM    = UTC
MEAN_ELEMENT_THEORY = SGP/SGP4

EPOCH          = 2026-01-24T01:53:48.772608
MEAN_MOTION    = 15.87397397
ECCENTRICITY   = .0001422
INCLINATION    = 82.4810
RA_OF_ASC_NODE = 245.8176
ARG_OF_PERICENTER = 42.1643
MEAN_ANOMALY   = 317.9737

EPHEMERIS_TYPE = 0
CLASSIFICATION_TYPE = U
NORAD_CAT_ID   = 17295
ELEMENT_SET_NO = 999
REV_AT_EPOCH   = 13734
BSTAR          = .82159E-3
MEAN_MOTION_DOT = .220051E-2
MEAN_MOTION_DDOT = 0

CCSDS_OMM_VERS = 2.0
CREATION_DATE  = 
ORIGINATOR     = 

OBJECT_NAME    = SL-14 R/B
OBJECT_ID      = 1987-024B
CENTER_NAME    = EARTH
REF_FRAME      = TEME
TIME_SYSTEM    = UTC
MEAN_ELEMENT_THEORY = SGP/SGP4

EPOCH          = 2026-01-23T09:24:29.147328
MEAN_MOTION    = 14.86081322
ECCENTRICITY   = .00194465
INCLINATION    = 82.5303
RA_OF_ASC_NODE = 135.3291
ARG_OF_PERICENTER = 53.7946
MEAN_ANOMALY   = 306.5065

EPHEMERIS_TYPE = 0
CLASSIFICATION_TYPE = U
NORAD_CAT_ID   = 17567
ELEMENT_SET_NO = 999
REV_AT_EPOCH   = 8140
BSTAR          = .1111592E-3
MEAN_MOTION_DOT = .1E-4
MEAN_MOTION_DDOT = 0

CCSDS_OMM_VERS = 2.0
CREATION_DATE  = 
ORIGINATOR     = 

OBJECT_NAME    = COSMOS 1833
OBJECT_ID      = 1987-027A
CENTER_NAME    = EARTH
REF_FRAME      = TEME
TIME_SYSTEM    = UTC
MEAN_ELEMENT_THEORY = SGP/SGP4

EPOCH          = 2026-01-24T02:54:38.882304
MEAN_MOTION    = 14.13050296
ECCENTRICITY   = .002449
INCLINATION    = 70.9194
RA_OF_ASC_NODE = 59.6901
ARG_OF_PERICENTER = 273.6560
MEAN_ANOMALY   = 86.1761

EPHEMERIS_TYPE = 0
CLASSIFICATION_TYPE = U
NORAD_CAT_ID   = 17589
ELEMENT_SET_NO = 999
REV_AT_EPOCH   = 402
BSTAR          = .15934E-3
MEAN_MOTION_DOT = .25E-5
MEAN_MOTION_DDOT = 0

CCSDS_OMM_VERS = 2.0
CREATION_DATE  = 
ORIGINATOR     = 

OBJECT_NAME    = SL-16 R/B
OBJECT_ID      = 1987-027B
CENTER_NAME    = EARTH
REF_FRAME      = TEME
TIME_SYSTEM    = UTC
MEAN_ELEMENT_THEORY = SGP/SGP4

EPOCH          = 2026-01-24T03:40:54.890112
MEAN_MOTION    = 14.17159788
ECCENTRICITY   = .000602
INCLINATION    = 71.0034
RA_OF_ASC_NODE = 10.3411
ARG_OF_PERICENTER = 212.8043
MEAN_ANOMALY   = 147.2707

EPHEMERIS_TYPE = 0
CLASSIFICATION_TYPE = U
NORAD_CAT_ID   = 17590
ELEMENT_SET_NO = 999
REV_AT_EPOCH   = 903
BSTAR          = .44705E-4
MEAN_MOTION_DOT = .42E-6
MEAN_MOTION_DDOT = 0

CCSDS_OMM_VERS = 2.0
CREATION_DATE  = 
ORIGINATOR     = 

OBJECT_NAME    = SL-14 R/B
OBJECT_ID      = 1987-038B
CENTER_NAME    = EARTH
REF_FRAME      = TEME
TIME_SYSTEM    = UTC
MEAN_ELEMENT_THEORY = SGP/SGP4

EPOCH          = 2026-01-23T08:43:36.868224
MEAN_MOTION    = 14.85314772
ECCENTRICITY   = .00182261
INCLINATION    = 82.5034
RA_OF_ASC_NODE = 339.4935
ARG_OF_PERICENTER = 318.3573
MEAN_ANOMALY   = 41.6254

EPHEMERIS_TYPE = 0
CLASSIFICATION_TYPE = U
NORAD_CAT_ID   = 17912
ELEMENT_SET_NO = 999
REV_AT_EPOCH   = 7250
BSTAR          = .11928598E-3
MEAN_MOTION_DOT = .1051E-4
MEAN_MOTION_DDOT = 0

CCSDS_OMM_VERS = 2.0
CREATION_DATE  = 
ORIGINATOR     = 

OBJECT_NAME    = COSMOS 1844
OBJECT_ID      = 1987-041A
CENTER_NAME    = EARTH
REF_FRAME      = TEME
TIME_SYSTEM    = UTC
MEAN_ELEMENT_THEORY = SGP/SGP4

EPOCH          = 2026-01-23T17:00:11.008800
MEAN_MOTION    = 14.14535254
ECCENTRICITY   = .00283641
INCLINATION    = 70.8992
RA_OF_ASC_NODE = 129.0548
ARG_OF_PERICENTER = 90.0593
MEAN_ANOMALY   = 270.3779

EPHEMERIS_TYPE = 0
CLASSIFICATION_TYPE = U
NORAD_CAT_ID   = 17973
ELEMENT_SET_NO = 999
REV_AT_EPOCH   = 99722
BSTAR          = -.56433137E-4
MEAN_MOTION_DOT = -.157E-5
MEAN_MOTION_DDOT = 0

CCSDS_OMM_VERS = 2.0
CREATION_DATE  = 
ORIGINATOR     = 

OBJECT_NAME    = SL-14 R/B
OBJECT_ID      = 1987-055B
CENTER_NAME    = EARTH
REF_FRAME      = TEME
TIME_SYSTEM    = UTC
MEAN_ELEMENT_THEORY = SGP/SGP4

EPOCH          = 2026-01-24T02:08:32.527104
MEAN_MOTION    = 14.85571890
ECCENTRICITY   = .0021232
INCLINATION    = 82.4977
RA_OF_ASC_NODE = 31.0664
ARG_OF_PERICENTER = 156.9945
MEAN_ANOMALY   = 203.2227

EPHEMERIS_TYPE = 0
CLASSIFICATION_TYPE = U
NORAD_CAT_ID   = 18153
ELEMENT_SET_NO = 999
REV_AT_EPOCH   = 6331
BSTAR          = .10655E-3
MEAN_MOTION_DOT = .949E-5
MEAN_MOTION_DDOT = 0

CCSDS_OMM_VERS = 2.0
CREATION_DATE  = 
ORIGINATOR     = 

OBJECT_NAME    = COSMOS 1867
OBJECT_ID      = 1987-060A
CENTER_NAME    = EARTH
REF_FRAME      = TEME
TIME_SYSTEM    = UTC
MEAN_ELEMENT_THEORY = SGP/SGP4

EPOCH          = 2026-01-24T03:34:27.413760
MEAN_MOTION    = 14.31495038
ECCENTRICITY   = .0013949
INCLINATION    = 65.0103
RA_OF_ASC_NODE = 71.4401
ARG_OF_PERICENTER = 275.1840
MEAN_ANOMALY   = 84.7652

EPHEMERIS_TYPE = 0
CLASSIFICATION_TYPE = U
NORAD_CAT_ID   = 18187
ELEMENT_SET_NO = 999
REV_AT_EPOCH   = 1356
BSTAR          = .52427E-4
MEAN_MOTION_DOT = .39E-6
MEAN_MOTION_DDOT = 0

CCSDS_OMM_VERS = 2.0
CREATION_DATE  = 
ORIGINATOR     = 

OBJECT_NAME    = SL-14 R/B
OBJECT_ID      = 1988-001B
CENTER_NAME    = EARTH
REF_FRAME      = TEME
TIME_SYSTEM    = UTC
MEAN_ELEMENT_THEORY = SGP/SGP4

EPOCH          = 2026-01-24T01:57:29.358720
MEAN_MOTION    = 14.85473923
ECCENTRICITY   = .0018855
INCLINATION    = 82.5105
RA_OF_ASC_NODE = 237.3214
ARG_OF_PERICENTER = 30.1246
MEAN_ANOMALY   = 330.1050

EPHEMERIS_TYPE = 0
CLASSIFICATION_TYPE = U
NORAD_CAT_ID   = 18749
ELEMENT_SET_NO = 999
REV_AT_EPOCH   = 3540
BSTAR          = .95829E-4
MEAN_MOTION_DOT = .853E-5
MEAN_MOTION_DDOT = 0

